O3B FM5                 
1 39188U 13031A   22218.44981662 -.00000014  00000+0  00000+0 0  9996
2 39188   0.0541  22.9907 0002570 113.8217 223.2077  5.00115197166462
O3B FM4                 
1 39189U 13031B   22219.10555858 -.00000015  00000+0  00000+0 0  9996
2 39189   0.0564 353.5784 0002531 143.6332 222.8078  5.00115741166607
O3B FM2                 
1 39190U 13031C   22213.59836551 -.00000015  00000+0  00000+0 0  9997
2 39190   0.0595 350.0268 0001058 132.1970 237.7855  4.99476808166289
O3B PFM                 
1 39191U 13031D   22218.82347976 -.00000014  00000+0  00000+0 0  9996
2 39191   0.0518  13.4032 0002648 121.6068 225.0113  5.00115643166109
O3B FM3                 
1 40079U 14038A   22218.87822763 -.00000015  00000+0  00000+0 0  9999
2 40079   0.0549   1.5109 0005046 129.9165 228.6157  5.00115326147572
O3B FM7                 
1 40080U 14038B   22218.82429949 -.00000014  00000+0  00000+0 0  9994
2 40080   0.0588 359.2580 0001069 172.5793 188.1642  5.00115399147316
O3B FM6                 
1 40081U 14038C   22219.25045441 -.00000015  00000+0  00000+0 0  9995
2 40081   0.0544   0.5950 0002697 136.1789 223.2468  5.00115376147610
O3B FM8                 
1 40082U 14038D   22218.90462331 -.00000015  00000+0  00000+0 0  9998
2 40082   0.0541 357.1515 0002685 135.4202 227.4507  5.00115562147577
O3B FM10                
1 40348U 14083A   22219.13052727 -.00000015  00000+0  00000+0 0  9993
2 40348   0.0489   8.6974 0002632 126.7758 224.5475  5.00115084139528
O3B FM11                
1 40349U 14083B   22218.94411204 -.00000015  00000+0  00000+0 0  9991
2 40349   0.0533  10.1880 0002258 139.5975 210.2272  5.00115327139516
O3B FM12                
1 40350U 14083C   22218.57152800 -.00000014  00000+0  00000+0 0  9995
2 40350   0.0530   9.2825 0002695 130.0842 220.6532  5.00115202139355
O3B FM9                 
1 40351U 14083D   22218.59847081 -.00000014  00000+0  00000+0 0  9990
2 40351   0.0543  10.9193 0002585 125.4593 223.6418  5.00115537139498
DIAMOND RED             
1 42783U 17036U   22218.88233751  .00005377  00000+0  19821-3 0  9998
2 42783  97.1966 257.9574 0011578 143.4648 216.7384 15.28148660284641
DIAMOND GREEN           
1 42785U 17036W   22219.34050195  .00005714  00000+0  21078-3 0  9993
2 42785  97.1970 258.4638 0011455 142.9897 217.2136 15.28102986284708
DIAMOND BLUE            
1 42786U 17036X   22218.68473067  .00005310  00000+0  19607-3 0  9994
2 42786  97.1969 257.8222 0011425 145.5901 214.6081 15.28105034284685
LEO VANTAGE 1           
1 43113U 18004C   22218.86456875  .00000934  00000+0  81105-4 0  9993
2 43113  99.2459 304.2642 0401633  39.9993 323.0061 14.54004614231563
O3B FM15                
1 43231U 18024A   22219.06420220 -.00000015  00000+0  00000+0 0  9995
2 43231   0.0454   7.8716 0002887 130.7969 221.3530  5.00115935 80651
O3B FM16                
1 43232U 18024B   22218.91768999 -.00000015  00000+0  00000+0 0  9997
2 43232   0.0413   8.0514 0002855 130.8304 221.1394  5.00115825 80637
O3B FM14                
1 43233U 18024C   22218.75738737 -.00000014  00000+0  00000+0 0  9996
2 43233   0.0398   6.9517 0002673 132.7358 220.3321  5.00115228 80388
O3B FM13                
1 43234U 18024D   22218.61098874 -.00000014  00000+0  00000+0 0  9993
2 43234   0.0461  35.3384 0003529 111.9766 212.7067  5.00114943 80498
O3B FM20                
1 44112U 19020A   22218.98400214 -.00000015  00000+0  00000+0 0  9992
2 44112   0.0488   7.8264 0002911 138.2653 213.9266  5.00115380 61090
O3B FM19                
1 44113U 19020B   22210.81524545 -.00000020  00000+0  00000+0 0  9997
2 44113   0.0551  23.5318 0001731 107.7214 228.7598  5.00115059 60689
O3B FM17                
1 44114U 19020C   22218.69153956 -.00000014  00000+0  00000+0 0  9999
2 44114   0.0428 343.8348 0002990 155.6095 220.5778  5.00115509 60962
O3B FM18                
1 44115U 19020D   22219.03785514 -.00000015  00000+0  00000+0 0  9991
2 44115   0.0490   8.3082 0002877 127.7488 223.9656  5.00115719 61090
SALSAT                  
1 46495U 20068K   22218.57356792  .00001295  00000+0  96244-4 0  9998
2 46495  97.7316 159.8997 0018111 106.4246 253.8972 15.04682636101724
